API VERSION: 1.2
API SOURCE: NASA/JPL Horizons API



*******************************************************************************
Ephemeris / API_USER Wed Apr 15 10:19:07 2026 Pasadena, USA      / Horizons
*******************************************************************************
Target body name: Uranus (799)                    {source: ura184_merged}
Center body name: Sun (10)                        {source: DE441}
Center-site name: BODY CENTER
*******************************************************************************
Start time      : A.D. 2095-Feb-12 12:07:00.0000 TDB
Stop  time      : A.D. 2095-Feb-14 12:07:00.0000 TDB
Step-size       : 60 minutes
*******************************************************************************
Center geodetic : 0.0, 0.0, 0.0                   {E-lon(deg),Lat(deg),Alt(km)}
Center cylindric: 0.0, 0.0, 0.0                   {E-lon(deg),Dxy(km),Dz(km)}
Center radii    : 695700.0, 695700.0, 695700.0 km {Equator_a, b, pole_c}
Output units    : AU-D
Calendar mode   : Mixed Julian/Gregorian
Output type     : GEOMETRIC cartesian states
Output format   : 3 (position, velocity, LT, range, range-rate)
Reference frame : Ecliptic of J2000.0
*******************************************************************************
            JDTDB,            Calendar Date (TDB),                      X,                      Y,                      Z,                     VX,                     VY,                     VZ,                     LT,                     RG,                     RR,
**************************************************************************************************************************************************************************************************************************************************************************
$$SOE
2486286.004861111, A.D. 2095-Feb-12 12:07:00.0000,  2.008356421989341E+01, -3.756950001684952E-03, -2.598940006941120E-01, -3.366123937873350E-05,  3.754792603417832E-03,  1.452087272665009E-05,  1.160027070251931E-01,  2.008524609709457E+01, -3.454864905382534E-05,
2486286.046527778, A.D. 2095-Feb-12 13:07:00.0000,  2.008356281680625E+01, -3.600500345816792E-03, -2.598933956834684E-01, -3.368699175084977E-05,  3.754790876781599E-03,  1.451955828265800E-05,  1.160026987116067E-01,  2.008524465764172E+01, -3.454513449651542E-05,
2486286.088194444, A.D. 2095-Feb-12 14:07:00.0000,  2.008356141263980E+01, -3.444050761979016E-03, -2.598927907373482E-01, -3.371305306237639E-05,  3.754789148342311E-03,  1.451778174321252E-05,  1.160026903988306E-01,  2.008524321832915E+01, -3.454192290749432E-05,
2486286.129861111, A.D. 2095-Feb-12 15:07:00.0000,  2.008356000738026E+01, -3.287601249936775E-03, -2.598921858741069E-01, -3.373946726812633E-05,  3.754787433260189E-03,  1.451558943644916E-05,  1.160026820867864E-01,  2.008524177914332E+01, -3.453905883988663E-05,
2486286.171527778, A.D. 2095-Feb-12 16:07:00.0000,  2.008355860101211E+01, -3.131151808791116E-03, -2.598915811097631E-01, -3.376627155272387E-05,  3.754785748176595E-03,  1.451304725720884E-05,  1.160026737753857E-01,  2.008524034006889E+01, -3.453658033000474E-05,
2486286.213194444, A.D. 2095-Feb-12 17:07:00.0000,  2.008355719351848E+01, -2.974702436928525E-03, -2.598909764572001E-01, -3.379349442271650E-05,  3.754784110626116E-03,  1.451023924435841E-05,  1.160026654645320E-01,  2.008523890108919E+01, -3.453451697105400E-05,
2486286.254861111, A.D. 2095-Feb-12 18:07:00.0000,  2.008355578488149E+01, -2.818253132002635E-03, -2.598903719255193E-01, -3.382115509136787E-05,  3.754782538038950E-03,  1.450726130685294E-05,  1.160026571541228E-01,  2.008523746218643E+01, -3.453288921661508E-05,
2486286.296527778, A.D. 2095-Feb-12 19:07:00.0000,  2.008355437508265E+01, -2.661803890968511E-03, -2.598897675198004E-01, -3.384926530324962E-05,  3.754781046213586E-03,  1.450420748462396E-05,  1.160026488440515E-01,  2.008523602334218E+01, -3.453171002711397E-05,
2486286.338194444, A.D. 2095-Feb-12 20:07:00.0000,  2.008355296410300E+01, -2.505354710193796E-03, -2.598891632416488E-01, -3.387783519751051E-05,  3.754779647118892E-03,  1.450114528562315E-05,  1.160026405342089E-01,  2.008523458453755E+01, -3.453099041328919E-05,
2486286.379861111, A.D. 2095-Feb-12 21:07:00.0000,  2.008355155192305E+01, -2.348905585678115E-03, -2.598885590910728E-01, -3.390688537470740E-05,  3.754778345861440E-03,  1.449807560522540E-05,  1.160026322244824E-01,  2.008523314575299E+01, -3.453075098323899E-05,
2486286.421527778, A.D. 2095-Feb-12 22:07:00.0000,  2.008355013852185E+01, -2.192456513419799E-03, -2.598879550704504E-01, -3.393646803249353E-05,  3.754777136628529E-03,  1.449487147755786E-05,  1.160026239147511E-01,  2.008523170696762E+01, -3.453104228373333E-05,
2486286.463194444, A.D. 2095-Feb-12 23:07:00.0000,  2.008354872387508E+01, -2.036007489976367E-03, -2.598873511916115E-01, -3.396670089293713E-05,  3.754775997389476E-03,  1.449118839553800E-05,  1.160026156048754E-01,  2.008523026815725E+01, -3.453197756431952E-05,
2486286.504861111, A.D. 2095-Feb-13 00:07:00.0000,  2.008354730795151E+01, -1.879558513331204E-03, -2.598867474873913E-01, -3.399770802304752E-05,  3.754774861873625E-03,  1.448635314895719E-05,  1.160026072946775E-01,  2.008522882929110E+01, -3.453367216266818E-05,
2486286.546527778, A.D. 2095-Feb-13 01:07:00.0000,  2.008354589073357E+01, -1.723109583869755E-03, -2.598861439875628E-01, -3.402890075768730E-05,  3.754773823027491E-03,  1.448192022417675E-05,  1.160025989840582E-01,  2.008522739035196E+01, -3.453555758476254E-05,
2486286.588194444, A.D. 2095-Feb-13 02:07:00.0000,  2.008354447219940E+01, -1.566660690172075E-03, -2.598855406439025E-01, -3.406084611246026E-05,  3.754773116855124E-03,  1.447871400604546E-05,  1.160025906728875E-01,  2.008522595131736E+01, -3.453821147950878E-05,
2486286.629861111, A.D. 2095-Feb-13 03:07:00.0000,  2.008354305232184E+01, -1.410211821300484E-03, -2.598849374200597E-01, -3.409336159993770E-05,  3.754772616670570E-03,  1.447609497700595E-05,  1.160025823610059E-01,  2.008522451215968E+01, -3.454144308111778E-05,
2486286.671527778, A.D. 2095-Feb-13 04:07:00.0000,  2.008354163107937E+01, -1.253762970125694E-03, -2.598843342988087E-01, -3.412635136547796E-05,  3.754772261056024E-03,  1.447375964965575E-05,  1.160025740482878E-01,  2.008522307285716E+01, -3.454515260607642E-05,
2486286.713194444, A.D. 2095-Feb-13 05:07:00.0000,  2.008354020845336E+01, -1.097314131197795E-03, -2.598837312708532E-01, -3.415976460180798E-05,  3.754772027152197E-03,  1.447161316032076E-05,  1.160025657346250E-01,  2.008522163339106E+01, -3.454928801823664E-05,
2486286.754861111, A.D. 2095-Feb-13 06:07:00.0000,  2.008353878442689E+01, -9.408652995443135E-04, -2.598831283281062E-01, -3.419356868509363E-05,  3.754771912456043E-03,  1.446968017419953E-05,  1.160025574199190E-01,  2.008522019374436E+01, -3.455381701172042E-05,
2486286.796527778, A.D. 2095-Feb-13 07:07:00.0000,  2.008353735898429E+01, -7.844164700884985E-04, -2.598825254600500E-01, -3.422773294282848E-05,  3.754771922918554E-03,  1.446804459185939E-05,  1.160025491040788E-01,  2.008521875390125E+01, -3.455870999864392E-05,
2486286.838194444, A.D. 2095-Feb-13 08:07:00.0000,  2.008353593211132E+01, -6.279676374631285E-04, -2.598819226521451E-01, -3.426221988699679E-05,  3.754772065607923E-03,  1.446681049937733E-05,  1.160025407870208E-01,  2.008521731384729E+01, -3.456393083714642E-05,
2486286.879861111, A.D. 2095-Feb-13 09:07:00.0000,  2.008353450379548E+01, -4.715187960591463E-04, -2.598813198855278E-01, -3.429698149978314E-05,  3.754772344593194E-03,  1.446607842971978E-05,  1.160025324686715E-01,  2.008521587356977E+01, -3.456943281012429E-05,
2486286.921527778, A.D. 2095-Feb-13 10:07:00.0000,  2.008353307402653E+01, -3.150699401966485E-04, -2.598807171374600E-01, -3.433195876834976E-05,  3.754772759022171E-03,  1.446593234476945E-05,  1.160025241489701E-01,  2.008521443305813E+01, -3.457515799172825E-05,
2486286.963194444, A.D. 2095-Feb-13 11:07:00.0000,  2.008353164279687E+01, -1.586210643441974E-04, -2.598801143821605E-01, -3.436708315184228E-05,  3.754773302625279E-03,  1.446643384504683E-05,  1.160025158278708E-01,  2.008521299230445E+01, -3.458103863955849E-05,
2486287.004861111, A.D. 2095-Feb-13 12:07:00.0000,  2.008353021010194E+01, -2.172163339030143E-06, -2.598795115917730E-01, -3.440227904722586E-05,  3.754773964083242E-03,  1.446762100265417E-05,  1.160025075053451E-01,  2.008521155130379E+01, -3.458699964545005E-05,
2486287.046527778, A.D. 2095-Feb-13 13:07:00.0000,  2.008352877594040E+01,  1.542767674186812E-04, -2.598789087373213E-01, -3.443746661786770E-05,  3.754774727859175E-03,  1.446950992358847E-05,  1.160024991813832E-01,  2.008521011005446E+01, -3.459296138426382E-05,
2486287.088194444, A.D. 2095-Feb-13 14:07:00.0000,  2.008352734031430E+01,  3.107257318111628E-04, -2.598783057895657E-01, -3.447256457490091E-05,  3.754775575222029E-03,  1.447209770599848E-05,  1.160024908559947E-01,  2.008520866855812E+01, -3.459884253347507E-05,
2486287.129861111, A.D. 2095-Feb-13 15:07:00.0000,  2.008352590322905E+01,  4.671747328918639E-04, -2.598777027197235E-01, -3.450749266931995E-05,  3.754776485284488E-03,  1.447536589558006E-05,  1.160024825292087E-01,  2.008520722681982E+01, -3.460456260989305E-05,
2486287.171527778, A.D. 2095-Feb-13 16:07:00.0000,  2.008352446469334E+01,  6.236237728156440E-04, -2.598770995000454E-01, -3.454217377369117E-05,  3.754777435950056E-03,  1.447928386969730E-05,  1.160024742010733E-01,  2.008520578484789E+01, -3.461004409505403E-05,
2486287.213194444, A.D. 2095-Feb-13 17:07:00.0000,  2.008352302471900E+01,  7.800728528056409E-04, -2.598764961042592E-01, -3.457653551594285E-05,  3.754778404715617E-03,  1.448381182652956E-05,  1.160024658716550E-01,  2.008520434265381E+01, -3.461521410757442E-05,
